STARLINK-31269          
1 58844U 24017U   26068.84994161 -.00000033  00000+0  10997-4 0  9993
2 58844  53.1600 293.7026 0001055  88.4510 271.6611 15.30193277118790
EXO-0                   
1 59175U 23174DK  26068.71046781  .00011582  00000+0  36716-3 0  9992
2 59175  97.3864 148.9039 0009878 157.1125 203.0559 15.32821991129797
